TIANMU-1 20             
1 58661U 23208B   26185.29709168  .00010691  00000+0  33733-3 0  9993
2 58661  97.4463 302.3412 0005636 258.1329 101.9281 15.33028461140040
TIANMU-1 21             
1 58662U 23208C   26185.32461238  .00013600  00000+0  39753-3 0  9992
2 58662  97.4524 305.1243 0005842 248.1352 111.9271 15.35390663140190
TIANMU-1 22             
1 58663U 23208D   26185.26021190  .00010121  00000+0  33723-3 0  9991
2 58663  97.4518 301.5723 0002189 278.2203  81.8790 15.31302039139945
TIANMU-1 15             
1 58700U 24004A   26185.26839745  .00007841  00000+0  30013-3 0  9995
2 58700  97.4670  11.4589 0005653 277.0844  82.9752 15.26824931138381
TIANMU-1 16             
1 58701U 24004B   26184.73433271  .00009157  00000+0  34897-3 0  9997
2 58701  97.4615  10.1476 0004408 300.8147  59.2658 15.26923320138306
TIANMU-1 17             
1 58702U 24004C   26184.58873332  .00008466  00000+0  32294-3 0  9998
2 58702  97.4642  10.4932 0004062 309.7724  50.3157 15.26920424138276
TIANMU-1 18             
1 58703U 24004D   26185.28509058  .00006994  00000+0  26795-3 0  9991
2 58703  97.4663  11.4509 0003364 280.0943  79.9916 15.26843009138384
INSAT-3DS               
1 58990U 24033A   26185.09697672 -.00000144  00000+0  00000+0 0  9999
2 58990   0.0747  96.4447 0001273  11.4227 291.2094  1.00273426 47233
METEOR-M2 4             
1 59051U 24039A   26185.27653729  .00000031  00000+0  33446-4 0  9998
2 59051  98.7019 144.3604 0008079 115.9705 244.2306 14.22431325121697
GOES 19                 
1 60133U 24119A   26183.56768633 -.00000238  00000+0  00000+0 0  9996
2 60133   0.0126  77.9489 0000538  80.1000 251.7332  1.00271173  7117
MTG-S1                  
1 64723U 25143A   26185.22217068  .00000004  00000+0  00000+0 0  9999
2 64723   0.5907 342.5206 0003046 262.4259 116.8162  1.00272378  3592
METOP-SGA1              
1 65159U 25172A   26185.12327269  .00000065  00000+0  51078-4 0  9992
2 65159  98.6635 244.4927 0007690   5.2384 354.8872 14.19817866 46199
FENGYUN 3H              
1 65815U 25219A   26185.23479770  .00000075  00000+0  55739-4 0  9999
2 65815  98.6770 125.6726 0001385  65.9254 294.2067 14.19923429 39805
