OBJECT_NAME,OBJECT_ID,EPOCH,MEAN_MOTION,ECCENTRICITY,INCLINATION,RA_OF_ASC_NODE,ARG_OF_PERICENTER,MEAN_ANOMALY,EPHEMERIS_TYPE,CLASSIFICATION_TYPE,NORAD_CAT_ID,ELEMENT_SET_NO,REV_AT_EPOCH,BSTAR,MEAN_MOTION_DOT,MEAN_MOTION_DDOT
TIANMU-1 20,2023-208B,2026-07-04T07:07:48.721152,15.33028461,.0005636,97.4463,302.3412,258.1329,101.9281,0,U,58661,999,14004,.33732799E-3,.10691E-3,0
TIANMU-1 21,2023-208C,2026-07-04T07:47:26.509632,15.35390663,.0005842,97.4524,305.1243,248.1352,111.9271,0,U,58662,999,14019,.39752599E-3,.136E-3,0
TIANMU-1 22,2023-208D,2026-07-04T06:14:42.308160,15.31302039,.00021892,97.4518,301.5723,278.2203,81.8790,0,U,58663,999,13994,.33722715E-3,.10121E-3,0
TIANMU-1 15,2024-004A,2026-07-04T06:26:29.539680,15.26824931,.0005653,97.4670,11.4589,277.0844,82.9752,0,U,58700,999,13838,.30013105E-3,.7841E-4,0
TIANMU-1 16,2024-004B,2026-07-03T17:37:26.346144,15.26923320,.00044082,97.4615,10.1476,300.8147,59.2658,0,U,58701,999,13830,.34897E-3,.9157E-4,0
TIANMU-1 17,2024-004C,2026-07-03T14:07:46.558848,15.26920424,.00040628,97.4642,10.4932,309.7724,50.3157,0,U,58702,999,13827,.32294394E-3,.8466E-4,0
TIANMU-1 18,2024-004D,2026-07-04T06:50:31.826112,15.26843009,.00033641,97.4663,11.4509,280.0943,79.9916,0,U,58703,999,13838,.26794999E-3,.6994E-4,0
INSAT-3DS,2024-033A,2026-07-04T02:19:38.788608,1.00273426,.00012735,0.0747,96.4447,11.4227,291.2094,0,U,58990,999,4723,0,-.144E-5,0
METEOR-M2 4,2024-039A,2026-07-04T06:38:12.821856,14.22431325,.00080798,98.7019,144.3604,115.9705,244.2306,0,U,59051,999,12169,.33446091E-4,.31E-6,0
GOES 19,2024-119A,2026-07-02T13:37:28.098912,1.00271173,.0000538,0.0126,77.9489,80.1000,251.7332,0,U,60133,999,711,0,-.238E-5,0
MTG-S1,2025-143A,2026-07-04T05:19:55.546752,1.00272378,.00030463,0.5907,342.5206,262.4259,116.8162,0,U,64723,999,359,0,.4E-7,0
METOP-SGA1,2025-172A,2026-07-04T02:57:30.760416,14.19817866,.00076906,98.6635,244.4927,5.2384,354.8872,0,U,65159,999,4619,.51077542E-4,.65E-6,0
FENGYUN 3H,2025-219A,2026-07-04T05:38:06.521280,14.19923429,.00013854,98.6770,125.6726,65.9254,294.2067,0,U,65815,999,3980,.55739197E-4,.75E-6,0
